[
    {
        "Altitude(m)": 702731.237157158,
        "Argument of Periapsis(deg)": 0.011390121186627068,
        "Eccentricity": 0.0,
        "Inclination(deg)": 45.0,
        "Latitude(deg)": 14.831338313774802,
        "Longitude(deg)": 88.95593389629046,
        "Mean Anomaly(deg)": 158.8059166474808,
        "RAAN(deg)": 24.989248058541797,
        "Satellite Name": "Constellation 1 119",
        "Satellite Number": 119,
        "Semi-Major Axis(m)": 7083131.272910544,
        "Time(s)": 190
    },
    {
        "Altitude(m)": 702729.9399708967,
        "Argument of Periapsis(deg)": 0.011450069192872472,
        "Eccentricity": 0.0,
        "Inclination(deg)": 45.0,
        "Latitude(deg)": 14.789655391385564,
        "Longitude(deg)": 88.99767490075543,
        "Mean Anomaly(deg)": 158.86661778773072,
        "RAAN(deg)": 24.989191469376227,
        "Satellite Name": "Constellation 1 119",
        "Satellite Number": 119,
        "Semi-Major Axis(m)": 7083131.272910544,
        "Time(s)": 191
    },
    {
        "Altitude(m)": 702728.6602257056,
        "Argument of Periapsis(deg)": 0.01151001719911788,
        "Eccentricity": 0.0,
        "Inclination(deg)": 45.0,
        "Latitude(deg)": 14.747963241808009,
        "Longitude(deg)": 89.03939838300417,
        "Mean Anomaly(deg)": 158.92731892798062,
        "RAAN(deg)": 24.98913488021066,
        "Satellite Name": "Constellation 1 119",
        "Satellite Number": 119,
        "Semi-Major Axis(m)": 7083131.272910544,
        "Time(s)": 192
    },
    {
        "Altitude(m)": 702727.3979451531,
        "Argument of Periapsis(deg)": 0.011569965205363285,
        "Eccentricity": 0.0,
        "Inclination(deg)": 45.0,
        "Latitude(deg)": 14.706261895735832,
        "Longitude(deg)": 89.08110422924452,
        "Mean Anomaly(deg)": 158.98802006823053,
        "RAAN(deg)": 24.989078291045086,
        "Satellite Name": "Constellation 1 119",
        "Satellite Number": 119,
        "Semi-Major Axis(m)": 7083131.272910544,
        "Time(s)": 193
    },
    {
        "Altitude(m)": 702726.1531527278,
        "Argument of Periapsis(deg)": 0.01162991321160869,
        "Eccentricity": 0.0,
        "Inclination(deg)": 45.0,
        "Latitude(deg)": 14.664551383828728,
        "Longitude(deg)": 89.12279282994555,
        "Mean Anomaly(deg)": 159.0487212084804,
        "RAAN(deg)": 24.98902170187952,
        "Satellite Name": "Constellation 1 119",
        "Satellite Number": 119,
        "Semi-Major Axis(m)": 7083131.272910544,
        "Time(s)": 194
    },
    {
        "Altitude(m)": 702724.9258718543,
        "Argument of Periapsis(deg)": 0.011689861217854095,
        "Eccentricity": 0.0,
        "Inclination(deg)": 45.0,
        "Latitude(deg)": 14.622831736712277,
        "Longitude(deg)": 89.16446407125463,
        "Mean Anomaly(deg)": 159.1094223487303,
        "RAAN(deg)": 24.98896511271395,
        "Satellite Name": "Constellation 1 119",
        "Satellite Number": 119,
        "Semi-Major Axis(m)": 7083131.272910544,
        "Time(s)": 195
    },
    {
        "Altitude(m)": 702723.7161258803,
        "Argument of Periapsis(deg)": 0.0117498092240995,
        "Eccentricity": 0.0,
        "Inclination(deg)": 45.0,
        "Latitude(deg)": 14.581102984978171,
        "Longitude(deg)": 89.20611800738602,
        "Mean Anomaly(deg)": 159.1701234889802,
        "RAAN(deg)": 24.988908523548382,
        "Satellite Name": "Constellation 1 119",
        "Satellite Number": 119,
        "Semi-Major Axis(m)": 7083131.272910544,
        "Time(s)": 196
    },
    {
        "Altitude(m)": 702722.523938081,
        "Argument of Periapsis(deg)": 0.011809757230344905,
        "Eccentricity": 0.0,
        "Inclination(deg)": 45.0,
        "Latitude(deg)": 14.539365159184413,
        "Longitude(deg)": 89.24775469252391,
        "Mean Anomaly(deg)": 159.2308246292301,
        "RAAN(deg)": 24.98885193438281,
        "Satellite Name": "Constellation 1 119",
        "Satellite Number": 119,
        "Semi-Major Axis(m)": 7083131.272910544,
        "Time(s)": 197
    },
    {
        "Altitude(m)": 702721.3493316615,
        "Argument of Periapsis(deg)": 0.011869705236590313,
        "Eccentricity": 0.0,
        "Inclination(deg)": 45.0,
        "Latitude(deg)": 14.497618289855195,
        "Longitude(deg)": 89.2893741808223,
        "Mean Anomaly(deg)": 159.29152576948002,
        "RAAN(deg)": 24.988795345217238,
        "Satellite Name": "Constellation 1 119",
        "Satellite Number": 119,
        "Semi-Major Axis(m)": 7083131.272910544,
        "Time(s)": 198
    },
    {
        "Altitude(m)": 702720.1923297567,
        "Argument of Periapsis(deg)": 0.011929653242835719,
        "Eccentricity": 0.0,
        "Inclination(deg)": 45.0,
        "Latitude(deg)": 14.455862407481273,
        "Longitude(deg)": 89.33097652640512,
        "Mean Anomaly(deg)": 159.3522269097299,
        "RAAN(deg)": 24.98873875605167,
        "Satellite Name": "Constellation 1 119",
        "Satellite Number": 119,
        "Semi-Major Axis(m)": 7083131.272910544,
        "Time(s)": 199
    }
]